SHIYAN-1 (SY-1)         
1 28220U 04012A   26068.73650539  .00016393  00000+0  54854-3 0  9991
2 28220  97.8764 140.5238 0005873  23.6952 336.4557 15.31043463195862
STARLINK-35862          
1 66628U 25271M   26068.47758524  .00017463  00000+0  60039-3 0  9990
2 66628  53.1564 140.9573 0000793  90.6009 269.5083 15.30197618 17536
